SHIYAN-24C 02           
1 58651U 23206B   26068.89175597  .00002770  00000+0  23935-3 0  9991
2 58651  97.3985  41.8071 0003465  80.6641 279.4974 14.97980163120443
STARLINK-34434          
1 64422U 25129L   26068.42768415 -.00003311  00000+0 -26984-3 0  9997
2 64422  70.0009  75.2956 0003163 271.5115  88.5682 14.98323947 41243
